SL-14 R/B               
1 21423U 91042B   26046.00137823  .00000388  00000+0  46183-4 0  9994
2 21423  82.4898 241.4623 0016066 319.8476  40.1550 14.81806383849718
ERS-1                   
1 21574U 91050A   26046.03661342  .00000331  00000+0  12063-3 0  9998
2 21574  98.7892  63.7014 0030872 269.4798  90.2851 14.39430709812477
ARIANE 40 R/B           
1 21610U 91050F   26046.14143403  .00000287  00000+0  98364-4 0  9993
2 21610  98.2060  99.2188 0004105 130.1977 229.9573 14.42876506815747
INTERCOSMOS 25          
1 21819U 91086A   26046.20120896  .00001490  00000+0  28802-3 0  9997
2 21819  82.6086 323.5976 1486911 165.3774 199.5720 12.11938264493962
SL-8 R/B                
1 21876U 92008B   26046.19141976  .00000055  00000+0  41171-4 0  9996
2 21876  82.9254 284.5167 0034182 195.5007 284.4703 13.75969909706328
SL-8 R/B                
1 21938U 92020B   26046.28122278  .00000102  00000+0  90046-4 0  9991
2 21938  82.9337 170.3937 0028869   3.0933  21.9392 13.75546443698054
USA 81                  
1 21949U 92023A   26046.23441010  .00000223  00000+0  75300-4 0  9999
2 21949  85.0118 144.3900 0002751  97.8505 262.3000 14.32359889 91577
COSMOS 2219             
1 22219U 92076A   26046.23840746  .00000164  00000+0  11100-3 0  9998
2 22219  71.0580  65.0036 0020036 237.4513 122.4675 14.14077677715201
SL-16 R/B               
1 22220U 92076B   26045.90086255 -.00000191  00000+0 -71465-4 0  9993
2 22220  70.9975 236.3776 0011217 137.7008 324.4052 14.16855342718600
COSMOS 2221             
1 22236U 92080A   26046.16572933  .00001782  00000+0  15598-3 0  9996
2 22236  82.5048 300.6543 0012795 269.5170  90.4585 14.96110533777420
SL-16 R/B               
1 22285U 92093B   26046.26639475  .00000283  00000+0  16917-3 0  9991
2 22285  71.0203  51.3384 0005385 318.0342  42.0368 14.15442939709988
COSMOS 2228             
1 22286U 92094A   26046.26367710  .00002304  00000+0  19691-3 0  9991
2 22286  82.5149 258.7862 0018591  21.7704 338.4304 14.97084382772708
