CCSDS_OMM_VERS = 2.0
CREATION_DATE  = 
ORIGINATOR     = 

OBJECT_NAME    = SL-14 R/B
OBJECT_ID      = 1991-042B
CENTER_NAME    = EARTH
REF_FRAME      = TEME
TIME_SYSTEM    = UTC
MEAN_ELEMENT_THEORY = SGP/SGP4

EPOCH          = 2026-02-15T00:01:59.079072
MEAN_MOTION    = 14.81806383
ECCENTRICITY   = .00160662
INCLINATION    = 82.4898
RA_OF_ASC_NODE = 241.4623
ARG_OF_PERICENTER = 319.8476
MEAN_ANOMALY   = 40.1550

EPHEMERIS_TYPE = 0
CLASSIFICATION_TYPE = U
NORAD_CAT_ID   = 21423
ELEMENT_SET_NO = 999
REV_AT_EPOCH   = 84971
BSTAR          = .46183293E-4
MEAN_MOTION_DOT = .388E-5
MEAN_MOTION_DDOT = 0

CCSDS_OMM_VERS = 2.0
CREATION_DATE  = 
ORIGINATOR     = 

OBJECT_NAME    = ERS-1
OBJECT_ID      = 1991-050A
CENTER_NAME    = EARTH
REF_FRAME      = TEME
TIME_SYSTEM    = UTC
MEAN_ELEMENT_THEORY = SGP/SGP4

EPOCH          = 2026-02-15T00:52:43.399488
MEAN_MOTION    = 14.39430709
ECCENTRICITY   = .00308729
INCLINATION    = 98.7892
RA_OF_ASC_NODE = 63.7014
ARG_OF_PERICENTER = 269.4798
MEAN_ANOMALY   = 90.2851

EPHEMERIS_TYPE = 0
CLASSIFICATION_TYPE = U
NORAD_CAT_ID   = 21574
ELEMENT_SET_NO = 999
REV_AT_EPOCH   = 81247
BSTAR          = .12062921E-3
MEAN_MOTION_DOT = .331E-5
MEAN_MOTION_DDOT = 0

CCSDS_OMM_VERS = 2.0
CREATION_DATE  = 
ORIGINATOR     = 

OBJECT_NAME    = ARIANE 40 R/B
OBJECT_ID      = 1991-050F
CENTER_NAME    = EARTH
REF_FRAME      = TEME
TIME_SYSTEM    = UTC
MEAN_ELEMENT_THEORY = SGP/SGP4

EPOCH          = 2026-02-15T03:23:39.900192
MEAN_MOTION    = 14.42876506
ECCENTRICITY   = .00041054
INCLINATION    = 98.2060
RA_OF_ASC_NODE = 99.2188
ARG_OF_PERICENTER = 130.1977
MEAN_ANOMALY   = 229.9573

EPHEMERIS_TYPE = 0
CLASSIFICATION_TYPE = U
NORAD_CAT_ID   = 21610
ELEMENT_SET_NO = 999
REV_AT_EPOCH   = 81574
BSTAR          = .98364394E-4
MEAN_MOTION_DOT = .287E-5
MEAN_MOTION_DDOT = 0

CCSDS_OMM_VERS = 2.0
CREATION_DATE  = 
ORIGINATOR     = 

OBJECT_NAME    = INTERCOSMOS 25
OBJECT_ID      = 1991-086A
CENTER_NAME    = EARTH
REF_FRAME      = TEME
TIME_SYSTEM    = UTC
MEAN_ELEMENT_THEORY = SGP/SGP4

EPOCH          = 2026-02-15T04:49:44.454144
MEAN_MOTION    = 12.11938264
ECCENTRICITY   = .14869113
INCLINATION    = 82.6086
RA_OF_ASC_NODE = 323.5976
ARG_OF_PERICENTER = 165.3774
MEAN_ANOMALY   = 199.5720

EPHEMERIS_TYPE = 0
CLASSIFICATION_TYPE = U
NORAD_CAT_ID   = 21819
ELEMENT_SET_NO = 999
REV_AT_EPOCH   = 49396
BSTAR          = .28801614E-3
MEAN_MOTION_DOT = .149E-4
MEAN_MOTION_DDOT = 0

CCSDS_OMM_VERS = 2.0
CREATION_DATE  = 
ORIGINATOR     = 

OBJECT_NAME    = SL-8 R/B
OBJECT_ID      = 1992-008B
CENTER_NAME    = EARTH
REF_FRAME      = TEME
TIME_SYSTEM    = UTC
MEAN_ELEMENT_THEORY = SGP/SGP4

EPOCH          = 2026-02-15T04:35:38.667264
MEAN_MOTION    = 13.75969909
ECCENTRICITY   = .00341822
INCLINATION    = 82.9254
RA_OF_ASC_NODE = 284.5167
ARG_OF_PERICENTER = 195.5007
MEAN_ANOMALY   = 284.4703

EPHEMERIS_TYPE = 0
CLASSIFICATION_TYPE = U
NORAD_CAT_ID   = 21876
ELEMENT_SET_NO = 999
REV_AT_EPOCH   = 70632
BSTAR          = .41170826E-4
MEAN_MOTION_DOT = .55E-6
MEAN_MOTION_DDOT = 0

CCSDS_OMM_VERS = 2.0
CREATION_DATE  = 
ORIGINATOR     = 

OBJECT_NAME    = SL-8 R/B
OBJECT_ID      = 1992-020B
CENTER_NAME    = EARTH
REF_FRAME      = TEME
TIME_SYSTEM    = UTC
MEAN_ELEMENT_THEORY = SGP/SGP4

EPOCH          = 2026-02-15T06:44:57.648192
MEAN_MOTION    = 13.75546443
ECCENTRICITY   = .00288697
INCLINATION    = 82.9337
RA_OF_ASC_NODE = 170.3937
ARG_OF_PERICENTER = 3.0933
MEAN_ANOMALY   = 21.9392

EPHEMERIS_TYPE = 0
CLASSIFICATION_TYPE = U
NORAD_CAT_ID   = 21938
ELEMENT_SET_NO = 999
REV_AT_EPOCH   = 69805
BSTAR          = .90045796E-4
MEAN_MOTION_DOT = .102E-5
MEAN_MOTION_DDOT = 0

CCSDS_OMM_VERS = 2.0
CREATION_DATE  = 
ORIGINATOR     = 

OBJECT_NAME    = USA 81
OBJECT_ID      = 1992-023A
CENTER_NAME    = EARTH
REF_FRAME      = TEME
TIME_SYSTEM    = UTC
MEAN_ELEMENT_THEORY = SGP/SGP4

EPOCH          = 2026-02-15T05:37:33.032640
MEAN_MOTION    = 14.32359889
ECCENTRICITY   = .00027517
INCLINATION    = 85.0118
RA_OF_ASC_NODE = 144.3900
ARG_OF_PERICENTER = 97.8505
MEAN_ANOMALY   = 262.3000

EPHEMERIS_TYPE = 0
CLASSIFICATION_TYPE = U
NORAD_CAT_ID   = 21949
ELEMENT_SET_NO = 999
REV_AT_EPOCH   = 9157
BSTAR          = .75299623E-4
MEAN_MOTION_DOT = .223E-5
MEAN_MOTION_DDOT = 0

CCSDS_OMM_VERS = 2.0
CREATION_DATE  = 
ORIGINATOR     = 

OBJECT_NAME    = COSMOS 2219
OBJECT_ID      = 1992-076A
CENTER_NAME    = EARTH
REF_FRAME      = TEME
TIME_SYSTEM    = UTC
MEAN_ELEMENT_THEORY = SGP/SGP4

EPOCH          = 2026-02-15T05:43:18.404544
MEAN_MOTION    = 14.14077677
ECCENTRICITY   = .00200368
INCLINATION    = 71.0580
RA_OF_ASC_NODE = 65.0036
ARG_OF_PERICENTER = 237.4513
MEAN_ANOMALY   = 122.4675

EPHEMERIS_TYPE = 0
CLASSIFICATION_TYPE = U
NORAD_CAT_ID   = 22219
ELEMENT_SET_NO = 999
REV_AT_EPOCH   = 71520
BSTAR          = .11099843E-3
MEAN_MOTION_DOT = .164E-5
MEAN_MOTION_DDOT = 0

CCSDS_OMM_VERS = 2.0
CREATION_DATE  = 
ORIGINATOR     = 

OBJECT_NAME    = SL-16 R/B
OBJECT_ID      = 1992-076B
CENTER_NAME    = EARTH
REF_FRAME      = TEME
TIME_SYSTEM    = UTC
MEAN_ELEMENT_THEORY = SGP/SGP4

EPOCH          = 2026-02-14T21:37:14.524320
MEAN_MOTION    = 14.16855342
ECCENTRICITY   = .00112173
INCLINATION    = 70.9975
RA_OF_ASC_NODE = 236.3776
ARG_OF_PERICENTER = 137.7008
MEAN_ANOMALY   = 324.4052

EPHEMERIS_TYPE = 0
CLASSIFICATION_TYPE = U
NORAD_CAT_ID   = 22220
ELEMENT_SET_NO = 999
REV_AT_EPOCH   = 71860
BSTAR          = -.71465161E-4
MEAN_MOTION_DOT = -.191E-5
MEAN_MOTION_DDOT = 0

CCSDS_OMM_VERS = 2.0
CREATION_DATE  = 
ORIGINATOR     = 

OBJECT_NAME    = COSMOS 2221
OBJECT_ID      = 1992-080A
CENTER_NAME    = EARTH
REF_FRAME      = TEME
TIME_SYSTEM    = UTC
MEAN_ELEMENT_THEORY = SGP/SGP4

EPOCH          = 2026-02-15T03:58:39.014112
MEAN_MOTION    = 14.96110533
ECCENTRICITY   = .00127959
INCLINATION    = 82.5048
RA_OF_ASC_NODE = 300.6543
ARG_OF_PERICENTER = 269.5170
MEAN_ANOMALY   = 90.4585

EPHEMERIS_TYPE = 0
CLASSIFICATION_TYPE = U
NORAD_CAT_ID   = 22236
ELEMENT_SET_NO = 999
REV_AT_EPOCH   = 77742
BSTAR          = .15597941E-3
MEAN_MOTION_DOT = .1782E-4
MEAN_MOTION_DDOT = 0

CCSDS_OMM_VERS = 2.0
CREATION_DATE  = 
ORIGINATOR     = 

OBJECT_NAME    = SL-16 R/B
OBJECT_ID      = 1992-093B
CENTER_NAME    = EARTH
REF_FRAME      = TEME
TIME_SYSTEM    = UTC
MEAN_ELEMENT_THEORY = SGP/SGP4

EPOCH          = 2026-02-15T06:23:36.506400
MEAN_MOTION    = 14.15442939
ECCENTRICITY   = .00053851
INCLINATION    = 71.0203
RA_OF_ASC_NODE = 51.3384
ARG_OF_PERICENTER = 318.0342
MEAN_ANOMALY   = 42.0368

EPHEMERIS_TYPE = 0
CLASSIFICATION_TYPE = U
NORAD_CAT_ID   = 22285
ELEMENT_SET_NO = 999
REV_AT_EPOCH   = 70998
BSTAR          = .16916934E-3
MEAN_MOTION_DOT = .283E-5
MEAN_MOTION_DDOT = 0

CCSDS_OMM_VERS = 2.0
CREATION_DATE  = 
ORIGINATOR     = 

OBJECT_NAME    = COSMOS 2228
OBJECT_ID      = 1992-094A
CENTER_NAME    = EARTH
REF_FRAME      = TEME
TIME_SYSTEM    = UTC
MEAN_ELEMENT_THEORY = SGP/SGP4

EPOCH          = 2026-02-15T06:19:41.701440
MEAN_MOTION    = 14.97084382
ECCENTRICITY   = .00185916
INCLINATION    = 82.5149
RA_OF_ASC_NODE = 258.7862
ARG_OF_PERICENTER = 21.7704
MEAN_ANOMALY   = 338.4304

EPHEMERIS_TYPE = 0
CLASSIFICATION_TYPE = U
NORAD_CAT_ID   = 22286
ELEMENT_SET_NO = 999
REV_AT_EPOCH   = 77270
BSTAR          = .19691161E-3
MEAN_MOTION_DOT = .2304E-4
MEAN_MOTION_DDOT = 0

